NORAD_CAT_ID,OBJECT_NAME,OBJECT_TYPE,EPOCH,MEAN_MOTION,ECCENTRICITY,INCLINATION,RA_OF_ASC_NODE,ARG_OF_PERICENTER,MEAN_ANOMALY,BSTAR,MEAN_MOTION_DOT,MEAN_MOTION_DDOT,TLE_LINE0,TLE_LINE1,TLE_LINE2,SEMIMAJOR_AXIS,PERIOD,APOGEE,PERIGEE,DECAYED
53175.0,STARLINK-4292,PAYLOAD,2024-03-10 18:48:26,15.08849291,0.000147,53.2146,206.3029,75.4028,284.7127,0.00018966,2.733e-05,0.0,0 STARLINK-4292,1 53175U 22083AV  24070.78363593  .00002733  00000-0  18966-3 0  9991,2 53175  53.2146 206.3029 0001470  75.4028 284.7127 15.08849291 91170,6917.852,95.437,540.734,538.7,0.0
53175.0,STARLINK-4292,PAYLOAD,2024-03-11 12:17:41,15.08842393,0.0001614,53.2138,203.0301,78.7646,281.3527,0.0002197,3.21e-05,0.0,0 STARLINK-4292,1 53175U 22083AV  24071.51228060  .00003210  00000-0  21970-3 0  9992,2 53175  53.2138 203.0301 0001614  78.7646 281.3527 15.08842393 91285,6917.873,95.437,540.855,538.622,0.0
53175.0,STARLINK-4292,PAYLOAD,2024-03-11 15:28:27,15.08845638,0.0001596,53.2141,202.4365,76.9818,283.1353,0.00027681,4.121e-05,0.0,0 STARLINK-4292,1 53175U 22083AV  24071.64475974  .00004121  00000-0  27681-3 0  9991,2 53175  53.2141 202.4365 0001596  76.9818 283.1353 15.08845638 91947,6917.863,95.437,540.832,538.624,0.0
53175.0,STARLINK-4292,PAYLOAD,2024-03-12 12:08:28,15.08845786,0.0001395,53.2172,198.5759,75.1023,285.0124,0.00021628,3.156e-05,0.0,0 STARLINK-4292,1 53175U 22083AV  24072.50587970  .00003156  00000-0  21628-3 0  9999,2 53175  53.2172 198.5759 0001395  75.1023 285.0124 15.08845786 92075,6917.863,95.437,540.693,538.763,0.0
53175.0,STARLINK-4292,PAYLOAD,2024-03-12 15:19:14,15.08849573,0.0001341,53.2166,197.9796,72.3667,287.7472,0.00025991,3.852e-05,0.0,0 STARLINK-4292,1 53175U 22083AV  24072.63835787  .00003852  00000-0  25991-3 0  9995,2 53175  53.2166 197.9796 0001341  72.3667 287.7472 15.08849573 91450,6917.851,95.437,540.644,538.788,0.0
53175.0,STARLINK-4292,PAYLOAD,2024-03-13 11:59:15,15.08843307,0.000133,53.2166,194.1146,77.5911,282.5229,0.00011278,1.508e-05,0.0,0 STARLINK-4292,1 53175U 22083AV  24073.49947942  .00001508  00000-0  11278-3 0  9996,2 53175  53.2166 194.1146 0001330  77.5911 282.5229 15.08843307 92223,6917.87,95.437,540.655,538.815,0.0
53175.0,STARLINK-4292,PAYLOAD,2024-03-14 11:50:01,15.08844667,0.0001345,53.2164,189.6542,78.665,281.4493,9.6228e-05,1.244e-05,0.0,0 STARLINK-4292,1 53175U 22083AV  24074.49307772  .00001244  00000-0  96228-4 0  9994,2 53175  53.2164 189.6542 0001345  78.6650 281.4493 15.08844667 91734,6917.866,95.437,540.662,538.801,0.0
53175.0,STARLINK-4292,PAYLOAD,2024-03-15 11:40:49,15.08838226,0.0001448,53.216,185.1913,94.0248,266.091,1.3775e-05,-6.9e-07,0.0,0 STARLINK-4292,1 53175U 22083AV  24075.48668119 -.00000069  00000-0  13775-4 0  9990,2 53175  53.2160 185.1913 0001448  94.0248 266.0910 15.08838226 92527,6917.886,95.438,540.753,538.749,0.0
53175.0,STARLINK-4292,PAYLOAD,2024-03-16 14:42:22,15.08841031,0.0001467,53.2156,180.137,76.3513,283.7642,0.00010236,1.342e-05,0.0,0 STARLINK-4292,1 53175U 22083AV  24076.61276410  .00001342  00000-0  10236-3 0  9997,2 53175  53.2156 180.1370 0001467  76.3513 283.7642 15.08841031 92057,6917.877,95.437,540.757,538.727,0.0
53175.0,STARLINK-4292,PAYLOAD,2024-03-17 12:57:46,15.08839963,0.0001573,53.2168,175.9759,73.7921,286.3244,0.00016613,2.357e-05,0.0,0 STARLINK-4292,1 53175U 22083AV  24077.54012510  .00002357  00000-0  16613-3 0  9991,2 53175  53.2168 175.9759 0001573  73.7921 286.3244 15.08839963 92198,6917.881,95.438,540.834,538.657,0.0
53175.0,STARLINK-4292,PAYLOAD,2024-03-18 11:13:10,15.08841931,0.0001433,53.2166,171.8126,81.7391,278.3763,7.3132e-05,8.76e-06,0.0,0 STARLINK-4292,1 53175U 22083AV  24078.46748560  .00000876  00000-0  73132-4 0  9998,2 53175  53.2166 171.8126 0001433  81.7391 278.3763 15.08841931 92975,6917.874,95.437,540.731,538.748,0.0
53175.0,STARLINK-4292,PAYLOAD,2024-03-19 09:28:34,15.08846215,0.0001644,53.2181,167.6506,107.8725,252.2446,8.9642e-05,1.139e-05,0.0,0 STARLINK-4292,1 53175U 22083AV  24079.39484048  .00001139  00000-0  89642-4 0  9995,2 53175  53.2181 167.6506 0001644 107.8725 252.2446 15.08846215 92476,6917.861,95.437,540.864,538.589,0.0
53175.0,STARLINK-4292,PAYLOAD,2024-03-19 14:14:42,15.08856315,0.0001567,53.2173,166.7547,104.247,255.8696,0.00014432,2.011e-05,0.0,0 STARLINK-4292,1 53175U 22083AV  24079.59355237  .00002011  00000-0  14432-3 0  9998,2 53175  53.2173 166.7547 0001567 104.2470 255.8696 15.08856315 93147,6917.831,95.437,540.78,538.611,0.0
53175.0,STARLINK-4292,PAYLOAD,2024-03-20 10:54:44,15.08833482,0.0002014,53.2167,162.8862,120.9654,239.1536,-9.0568e-05,-1.729e-05,0.0,0 STARLINK-4292,1 53175U 22083AV  24080.45468576 -.00001729  00000-0 -90568-4 0  9998,2 53175  53.2167 162.8862 0002014 120.9654 239.1536 15.08833482 93276,6917.9,95.438,541.159,538.372,0.0
53175.0,STARLINK-4292,PAYLOAD,2024-03-20 22:02:27,15.08835613,0.0001446,53.217,160.8096,87.0142,273.1015,2.4816e-05,1.07e-06,0.0,0 STARLINK-4292,1 53175U 22083AV  24080.91837209  .00000107  00000-0  24816-4 0  9992,2 53175  53.2170 160.8096 0001446  87.0142 273.1015 15.08835613 92705,6917.894,95.438,540.759,538.758,0.0
53175.0,STARLINK-4292,PAYLOAD,2024-03-21 12:20:54,15.08847775,0.000149,53.2159,158.136,95.026,265.0902,5.0713e-05,5.19e-06,0.0,0 STARLINK-4292,1 53175U 22083AV  24081.51452398  .00000519  00000-0  50713-4 0  9993,2 53175  53.2159 158.1360 0001490  95.0260 265.0902 15.08847775 93433,6917.857,95.437,540.752,538.691,0.0
53175.0,STARLINK-4292,PAYLOAD,2024-03-22 12:11:41,15.08855545,0.0001522,53.2153,153.6744,81.6856,278.4308,0.00041173,6.274e-05,0.0,0 STARLINK-4292,1 53175U 22083AV  24082.50812202  .00006274  00000-0  41173-3 0  9990,2 53175  53.2153 153.6744 0001522  81.6856 278.4308 15.08855545 92948,6917.833,95.437,540.751,538.645,0.0
53175.0,STARLINK-4292,PAYLOAD,2024-03-23 12:02:29,15.08832087,0.0001559,53.2159,149.2158,99.2718,260.8451,-6.0723e-05,-1.254e-05,0.0,0 STARLINK-4292,1 53175U 22083AV  24083.50173511 -.00001254  00000-0 -60723-4 0  9992,2 53175  53.2159 149.2158 0001559  99.2718 260.8451 15.08832087 93734,6917.905,95.438,540.848,538.691,0.0
53175.0,STARLINK-4292,PAYLOAD,2024-03-23 13:37:52,15.08836955,0.0001458,53.2154,148.9155,109.4856,250.6294,1.2649e-05,-8.7e-07,0.0,0 STARLINK-4292,1 53175U 22083AV  24083.56797177 -.00000087  00000-0  12649-4 0  9994,2 53175  53.2154 148.9155 0001458 109.4856 250.6294 15.08836955 93108,6917.89,95.438,540.763,538.746,0.0
53175.0,STARLINK-4292,PAYLOAD,2024-03-24 03:56:21,15.08844098,0.000149,53.216,146.2344,116.9224,243.1921,0.00032391,4.871e-05,0.0,0 STARLINK-4292,1 53175U 22083AV  24084.16413235  .00004871  00000-0  32391-3 0  9990,2 53175  53.2160 146.2344 0001490 116.9224 243.1921 15.08844098 93835,6917.868,95.437,540.764,538.702,0.0
53175.0,STARLINK-4292,PAYLOAD,2024-03-24 10:17:53,15.08856067,0.0001839,53.2149,145.0567,76.555,283.5647,0.0011055,0.00017358,0.0,0 STARLINK-4292,1 53175U 22083AV  24084.42908918  .00017358  00000-0  11055-2 0  9993,2 53175  53.2149 145.0567 0001839  76.5550 283.5647 15.08856067 93872,6917.831,95.437,540.968,538.424,0.0
53175.0,STARLINK-4292,PAYLOAD,2024-03-24 21:25:35,15.08859841,0.0001776,53.2169,142.963,92.212,267.9076,0.0011542,0.00018139,0.0,0 STARLINK-4292,1 53175U 22083AV  24084.89277022  .00018139  00000-0  11542-2 0  9998,2 53175  53.2169 142.9630 0001776  92.2120 267.9076 15.08859841 93302,6917.82,95.436,540.913,538.456,0.0
53175.0,STARLINK-4292,PAYLOAD,2024-03-25 10:08:40,15.08837057,0.0001391,53.2158,140.5854,90.2462,269.869,6.5494e-05,7.54e-06,0.0,0 STARLINK-4292,1 53175U 22083AV  24085.42269054  .00000754  00000-0  65494-4 0  9995,2 53175  53.2158 140.5854 0001391  90.2462 269.8690 15.08837057 94020,6917.889,95.438,540.717,538.792,0.0
53175.0,STARLINK-4292,PAYLOAD,2024-03-26 09:59:29,15.08821268,0.0001518,53.2163,136.1234,97.0797,263.0368,1.2944e-06,-2.67e-06,0.0,0 STARLINK-4292,1 53175U 22083AV  24086.41630907 -.00000267  00000-0  12944-5 0  9997,2 53175  53.2163 136.1234 0001518  97.0797 263.0368 15.08821268 94177,6917.938,95.439,540.853,538.753,0.0
53175.0,STARLINK-4292,PAYLOAD,2024-03-26 13:10:15,15.08820329,0.0001604,53.2167,135.5286,105.5892,254.5277,-0.00014444,-2.585e-05,0.0,0 STARLINK-4292,1 53175U 22083AV  24086.54879080 -.00002585  00000-0 -14444-3 0  9999,2 53175  53.2167 135.5286 0001604 105.5892 254.5277 15.08820329 93550,6917.941,95.439,540.915,538.696,0.0
53175.0,STARLINK-4292,PAYLOAD,2024-03-27 09:50:16,15.08843284,0.000119,53.2154,131.6678,74.3909,285.7214,0.00046586,7.135e-05,0.0,0 STARLINK-4292,1 53175U 22083AV  24087.40990752  .00007135  00000-0  46586-3 0  9991,2 53175  53.2154 131.6678 0001190  74.3909 285.7214 15.08843284 94328,6917.87,95.437,540.559,538.912,0.0
53175.0,STARLINK-4292,PAYLOAD,2024-03-27 19:22:34,15.08846263,0.0001415,53.2148,129.8821,77.7753,282.3397,0.00036393,5.51e-05,0.0,0 STARLINK-4292,1 53175U 22083AV  24087.80734582  .00005510  00000-0  36393-3 0  9992,2 53175  53.2148 129.8821 0001415  77.7753 282.3397 15.08846263 93744,6917.861,95.437,540.705,538.747,0.0
53175.0,STARLINK-4292,PAYLOAD,2024-03-28 12:51:48,15.08852339,0.00015,53.2166,126.6126,92.1653,267.9511,0.00033022,4.973e-05,0.0,0 STARLINK-4292,1 53175U 22083AV  24088.53598118  .00004973  00000-0  33022-3 0  9994,2 53175  53.2166 126.6126 0001500  92.1653 267.9511 15.08852339 94493,6917.843,95.437,540.745,538.67,0.0
53175.0,STARLINK-4292,PAYLOAD,2024-03-28 19:13:21,15.08849842,0.0001271,53.215,125.4218,78.6595,281.454,0.00020567,2.988e-05,0.0,0 STARLINK-4292,1 53175U 22083AV  24088.80093944  .00002988  00000-0  20567-3 0  9995,2 53175  53.2150 125.4218 0001271  78.6595 281.4540 15.08849842 93895,6917.85,95.437,540.595,538.836,0.0
53175.0,STARLINK-4292,PAYLOAD,2024-03-29 03:10:16,15.0884612,0.0001734,53.2152,123.9353,84.1167,276.0023,-5.9183e-05,-1.23e-05,0.0,0 STARLINK-4292,1 53175U 22083AV  24089.13214044 -.00001230  00000-0 -59183-4 0  9996,2 53175  53.2152 123.9353 0001734  84.1167 276.0023 15.08846120 94580,6917.862,95.437,540.926,538.527,0.0
